norad_id,name,regime,epoch,line1,line2,inclination,eccentricity,mean_motion,raan,arg_pericenter,mean_anomaly
44333,AT&T T-16,GEO,21044.35141972,1 44333U 19034A   21044.35141972 -.00000130  00000-0  00000-0 0    16\,2 44333   0.0503 286.8950 0001570 273.6321 328.7011  1.00280536  6094,0.0503,0.000157,1.00280536,286.895,273.6321,328.7011
44333,AT&T T-16,GEO,21044.65647149,1 44333U 19034A   21044.65647149 -.00000128  00000-0  00000+0 0  8852\,2 44333   0.0500 290.1537 0001766 253.2828  95.9061  1.00271064  6097,0.05,0.0001766,1.00271064,290.1537,253.2828,95.9061
44333,AT&T T-16,GEO,21044.86508990,1 44333U 19034A   21044.86508990 -.00000128  00000-0  00000-0 0    16\,2 44333   0.0473 279.4944 0001567 262.8077 172.3530  1.00274222  6099,0.0473,0.0001567,1.00274222,279.4944,262.8077,172.353
44333,AT&T T-16,GEO,21045.08045608,1 44333U 19034A   21045.08045608 -.00000127  00000-0  00000+0 0  8862\,2 44333   0.0486 290.2889 0001548 251.4190 250.6937  1.00274451  6096,0.0486,0.0001548,1.00274451,290.2889,251.419,250.6937
44333,AT&T T-16,GEO,21045.62760062,1 44333U 19034A   21045.62760062 -.00000125  00000-0  00000+0 0  8879\,2 44333   0.0324 284.4858 0001600 261.1041  84.3243  1.00272208  6090,0.0324,0.00016,1.00272208,284.4858,261.1041,84.3243
44333,AT&T T-16,GEO,21045.87001149,1 44333U 19034A   21045.87001149 -.00000124  00000-0  00000+0 0  8880\,2 44333   0.0485 277.0073 0001538 268.4396 171.9763  1.00273127  6101,0.0485,0.0001538,1.00273127,277.0073,268.4396,171.9763
44333,AT&T T-16,GEO,21046.56096182,1 44333U 19034A   21046.56096182 -.00000122  00000-0  00000+0 0  8897\,2 44333   0.0324 282.9247 0001145 261.6040  62.3133  1.00269806  6109,0.0324,0.0001145,1.00269806,282.9247,261.604,62.3133
44333,AT&T T-16,GEO,21046.61679351,1 44333U 19034A   21046.61679351 -.00000121  00000-0  00000-0 0    14\,2 44333   0.0323 283.3493 0001142 261.2256  82.4211  1.00269786  6116,0.0323,0.0001142,1.00269786,283.3493,261.2256,82.4211
44333,AT&T T-16,GEO,21046.87494819,1 44333U 19034A   21046.87494819 -.00000120  00000-0  00000-0 0    15\,2 44333   0.0315 281.6021 0001200 265.1735 173.4084  1.00269537  6118,0.0315,0.00012,1.00269537,281.6021,265.1735,173.4084
44333,AT&T T-16,GEO,21047.53465227,1 44333U 19034A   21047.53465227 -.00000118  00000-0  00000+0 0  8902\,2 44333   0.0465 275.3352 0001153 272.1074  50.8806  1.00269766  6116,0.0465,0.0001153,1.00269766,275.3352,272.1074,50.8806
44333,AT&T T-16,GEO,21047.62666809,1 44333U 19034A   21047.62666809 -.00000118  00000-0  00000-0 0    16\,2 44333   0.0463 275.2683 0001147 272.3354  83.9351  1.00269737  6127,0.0463,0.0001147,1.00269737,275.2683,272.3354,83.9351
44333,AT&T T-16,GEO,21048.02341846,1 44333U 19034A   21048.02341846 -.00000117  00000-0  00000+0 0  8917\,2 44333   0.0514 285.9942 0001137 261.6556 227.1071  1.00269677  6128,0.0514,0.0001137,1.00269677,285.9942,261.6556,227.1071
44333,AT&T T-16,GEO,21048.47704341,1 44333U 19034A   21048.47704341 -.00000115  00000-0  00000+0 0  8928\,2 44333   0.0288 284.3067 0001140 261.1604  33.0389  1.00269690  6121,0.0288,0.000114,1.0026969,284.3067,261.1604,33.0389
44333,AT&T T-16,GEO,21048.60641597,1 44333U 19034A   21048.60641597 -.00000115  00000-0  00000-0 0    19\,2 44333   0.0422 298.5763 0001143 248.1751  78.4557  1.00269751  6131,0.0422,0.0001143,1.00269751,298.5763,248.1751,78.4557
44333,AT&T T-16,GEO,21048.64715385,1 44333U 19034A   21048.64715385 -.00000115  00000-0  00000-0 0    10\,2 44333   0.0430 298.8567 0001163 249.9354  91.1208  1.00269773  6134,0.043,0.0001163,1.00269773,298.8567,249.9354,91.1208
44333,AT&T T-16,GEO,21049.49542403,1 44333U 19034A   21049.49542403 -.00000113  00000-0  00000-0 0    11\,2 44333   0.0445 281.1942 0001058 267.7807  37.1601  1.00273750  6144,0.0445,0.0001058,1.0027375,281.1942,267.7807,37.1601
44333,AT&T T-16,GEO,21049.67436913,1 44333U 19034A   21049.67436913 -.00000113  00000-0  00000-0 0    19\,2 44333   0.0311 289.2721 0001073 260.4195 101.0421  1.00274044  6145,0.0311,0.0001073,1.00274044,289.2721,260.4195,101.0421
44333,AT&T T-16,GEO,21050.46835872,1 44333U 19034A   21050.46835872 -.00000112  00000-0  00000-0 0    14\,2 44333   0.0387 293.2769 0000851 264.0268  20.0533  1.00274356  6150,0.0387,8.51e-05,1.00274356,293.2769,264.0268,20.0533
44333,AT&T T-16,GEO,21050.53568073,1 44333U 19034A   21050.53568073 -.00000112  00000-0  00000+0 0  8970\,2 44333   0.0381 295.4463 0000920 255.7858  50.4258  1.00272229  6145,0.0381,9.2e-05,1.00272229,295.4463,255.7858,50.4258
44333,AT&T T-16,GEO,21051.50954694,1 44333U 19034A   21051.50954694 -.00000111  00000-0  00000-0 0    13\,2 44333   0.0361 293.6278 0000867 257.2489  42.3348  1.00272313  6160,0.0361,8.67e-05,1.00272313,293.6278,257.2489,42.3348
44333,AT&T T-16,GEO,21051.68379300,1 44333U 19034A   21051.68379300 -.00000111  00000-0  00000-0 0    17\,2 44333   0.0358 292.6261 0000849 257.3119 106.1738  1.00272263  6164,0.0358,8.49e-05,1.00272263,292.6261,257.3119,106.1738
44333,AT&T T-16,GEO,21052.47380163,1 44333U 19034A   21052.47380163 -.00000112  00000-0  00000-0 0    15\,2 44333   0.0339 285.7514 0000802 262.3416  33.2018  1.00272144  6172,0.0339,8.02e-05,1.00272144,285.7514,262.3416,33.2018
44333,AT&T T-16,GEO,21052.54550958,1 44333U 19034A   21052.54550958 -.00000112  00000-0  00000-0 0    14\,2 44333   0.0336 284.0573 0000792 263.4651  59.6579  1.00272124  6179,0.0336,7.92e-05,1.00272124,284.0573,263.4651,59.6579
44333,AT&T T-16,GEO,21053.06367544,1 44333U 19034A   21053.06367544 -.00000113  00000-0  00000+0 0  8994\,2 44333   0.0315 275.3366 0000762 270.9345 247.9600  1.00272055  6179,0.0315,7.62e-05,1.00272055,275.3366,270.9345,247.96
44333,AT&T T-16,GEO,21053.56430020,1 44333U 19034A   21053.56430020 -.00000113  00000-0  00000-0 0    15\,2 44333   0.0315 270.8728 0000968 273.1340  70.9465  1.00272365  6187,0.0315,9.68e-05,1.00272365,270.8728,273.134,70.9465
44333,AT&T T-16,GEO,21053.65096087,1 44333U 19034A   21053.65096087 -.00000113  00000-0  00000-0 0    16\,2 44333   0.0312 269.0536 0000949 274.6347 102.5486  1.00272513  6183,0.0312,9.49e-05,1.00272513,269.0536,274.6347,102.5486
44333,AT&T T-16,GEO,21054.23060400,1 44333U 19034A   21054.23060400 -.00000115  00000-0  00000+0 0  9000\,2 44333   0.0298 262.9461 0000852 281.4468 311.0912  1.00273429  6186,0.0298,8.52e-05,1.00273429,262.9461,281.4468,311.0912
44333,AT&T T-16,GEO,21054.36838128,1 44333U 19034A   21054.36838128 -.00000114  00000-0  00000-0 0    16\,2 44333   0.0301 263.5207 0000840 283.9467 357.7523  1.00273053  6198,0.0301,8.4e-05,1.00273053,263.5207,283.9467,357.7523
44333,AT&T T-16,GEO,21054.62716623,1 44333U 19034A   21054.62716623 -.00000115  00000-0  00000-0 0    11\,2 44333   0.0298 261.9703 0000720 276.0672 100.5968  1.00271071  6199,0.0298,7.2e-05,1.00271071,261.9703,276.0672,100.5968
44333,AT&T T-16,GEO,21055.57649953,1 44333U 19034A   21055.57649953 -.00000116  00000-0  00000-0 0    18\,2 44333   0.0256 249.5547 0000641 278.4472  93.3281  1.00271474  6203,0.0256,6.41e-05,1.00271474,249.5547,278.4472,93.3281
44333,AT&T T-16,GEO,21055.63206198,1 44333U 19034A   21055.63206198 -.00000117  00000-0  00000-0 0    16\,2 44333   0.0255 248.7724 0000640 278.9214 113.6933  1.00271469  6202,0.0255,6.4e-05,1.00271469,248.7724,278.9214,113.6933
44333,AT&T T-16,GEO,21056.56730788,1 44333U 19034A   21056.56730788 -.00000118  00000-0  00000-0 0    17\,2 44333   0.0277 255.8509 0001052 282.7944  80.3543  1.00270376  6211,0.0277,0.0001052,1.00270376,255.8509,282.7944,80.3543
44333,AT&T T-16,GEO,21057.20999880,1 44333U 19034A   21057.20999880 -.00000120  00000-0  00000+0 0  9032\,2 44333   0.0239 244.5009 0000903 287.1111 319.3925  1.00272453  6215,0.0239,9.03e-05,1.00272453,244.5009,287.1111,319.3925
44333,AT&T T-16,GEO,21057.50640650,1 44333U 19034A   21057.50640650 -.00000120  00000-0  00000-0 0    13\,2 44333   0.0342 272.6718 0000956 264.7144  60.6204  1.00272867  6220,0.0342,9.56e-05,1.00272867,272.6718,264.7144,60.6204
44333,AT&T T-16,GEO,21057.57016447,1 44333U 19034A   21057.57016447 -.00000120  00000-0  00000-0 0    11\,2 44333   0.0339 272.2446 0001131 268.5722  80.2038  1.00269368  6225,0.0339,0.0001131,1.00269368,272.2446,268.5722,80.2038
44333,AT&T T-16,GEO,21058.14839623,1 44333U 19034A   21058.14839623 -.00000121  00000-0  00000+0 0  9057\,2 44333   0.0301 261.3605 0000919 267.1457 301.2512  1.00272737  6220,0.0301,9.19e-05,1.00272737,261.3605,267.1457,301.2512
44333,AT&T T-16,GEO,21058.53015024,1 44333U 19034A   21058.53015024 -.00000121  00000-0  00000-0 0    19\,2 44333   0.0381 283.4700 0001139 256.7348  67.3605  1.00269445  6233,0.0381,0.0001139,1.00269445,283.47,256.7348,67.3605
44333,AT&T T-16,GEO,21058.64679333,1 44333U 19034A   21058.64679333 -.00000121  00000-0  00000-0 0    10\,2 44333   0.0374 281.6986 0001096 257.8448 110.1282  1.00270080  6231,0.0374,0.0001096,1.0027008,281.6986,257.8448,110.1282
44333,AT&T T-16,GEO,21059.00571528,1 44333U 19034A   21059.00571528 -.00000122  00000-0  00000+0 0  9073\,2 44333   0.0372 283.2319 0000934 251.7195 244.2886  1.00272408  6234,0.0372,9.34e-05,1.00272408,283.2319,251.7195,244.2886
44333,AT&T T-16,GEO,21059.50817321,1 44333U 19034A   21059.50817321 -.00000122  00000-0  00000-0 0    18\,2 44333   0.0412 293.8921 0001190 248.6493  58.0785  1.00269095  6244,0.0412,0.000119,1.00269095,293.8921,248.6493,58.0785
44333,AT&T T-16,GEO,21059.57994882,1 44333U 19034A   21059.57994882 -.00000122  00000-0  00000+0 0  9088\,2 44333   0.0411 294.1906 0001208 247.4111  84.9271  1.00268778  6238,0.0411,0.0001208,1.00268778,294.1906,247.4111,84.9271
44333,AT&T T-16,GEO,21059.86704230,1 44333U 19034A   21059.86704230 -.00000122  00000-0  00000-0 0    11\,2 44333   0.0405 294.6966 0001048 247.8172 187.6533  1.00271199  6249,0.0405,0.0001048,1.00271199,294.6966,247.8172,187.6533
44333,AT&T T-16,GEO,21060.30743837,1 44333U 19034A   21060.30743837 -.00000122  00000-0  00000-0 0    18\,2 44333   0.0411 295.9455 0000739 239.5887 353.6046  1.00268468  6250,0.0411,7.39e-05,1.00268468,295.9455,239.5887,353.6046
